[{"OBJECT_NAME":"FORMOSAT 7-3","OBJECT_ID":"2019-036E","EPOCH":"2026-03-09T19:49:52.754592","MEAN_MOTION":15.08933962,"ECCENTRICITY":0.00010606,"INCLINATION":23.9981,"RA_OF_ASC_NODE":141.9797,"ARG_OF_PERICENTER":150.4425,"MEAN_ANOMALY":209.6139,"EPHEMERIS_TYPE":0,"CLASSIFICATION_TYPE":"U","NORAD_CAT_ID":44343,"ELEMENT_SET_NO":999,"REV_AT_EPOCH":36821,"BSTAR":0.00037650049,"MEAN_MOTION_DOT":6.445e-5,"MEAN_MOTION_DDOT":0},{"OBJECT_NAME":"STARLINK-5193","OBJECT_ID":"2022-136AW","EPOCH":"2026-03-09T22:06:30.715776","MEAN_MOTION":15.08835048,"ECCENTRICITY":9.484e-5,"INCLINATION":53.2185,"RA_OF_ASC_NODE":332.7538,"ARG_OF_PERICENTER":85.2824,"MEAN_ANOMALY":274.8276,"EPHEMERIS_TYPE":0,"CLASSIFICATION_TYPE":"U","NORAD_CAT_ID":54095,"ELEMENT_SET_NO":999,"REV_AT_EPOCH":18702,"BSTAR":9.9037669e-5,"MEAN_MOTION_DOT":1.289e-5,"MEAN_MOTION_DDOT":0}]
